{"type": "FeatureCollection", "features": [ {"type": "Feature", "properties": {"norad_id": 31212, "name": "FENGYUN 1C DEB", "group": "fengyun-1c-debris", "lat": -64.55208956637115, "lon": 40.432167660007345, "alt_km": 889.2935118321429, "timestamp": "2025-12-14T22:38:41.039036+00:00", "meta": {"OBJECT_NAME": "FENGYUN 1C DEB", "OBJECT_ID": "1999-025BKS", "EPOCH": "2025-12-12T19:58:55.504704", "MEAN_MOTION": 14.1311293, "ECCENTRICITY": 0.00752736, "INCLINATION": 99.2199, "RA_OF_ASC_NODE": 18.301, "ARG_OF_PERICENTER": 171.5168, "MEAN_ANOMALY": 188.7295, "EPHEMERIS_TYPE": 0, "CLASSIFICATION_TYPE": "U", "NORAD_CAT_ID": 31212, "ELEMENT_SET_NO": 999, "REV_AT_EPOCH": 95660, "BSTAR": 0.0019567941, "MEAN_MOTION_DOT": 3.711e-05, "MEAN_MOTION_DDOT": 0}, "tle": {"line1": "1 31212U 99025BKS 25346.83258686  .00003711  00000+0  19568-2 0  9992", "line2": "2 31212  99.2199  18.3010 0075273 171.5168 188.7295 14.13112930956607"}}, "geometry": {"type": "Point", "coordinates": [40.432167660007345, -64.55208956637115]}}, {"type": "Feature", "properties": {"norad_id": 31215, "name": "FENGYUN 1C DEB", "group": "fengyun-1c-debris", "lat": 75.89530567548682, "lon": 153.62071390388542, "alt_km": 797.5641053361169, "timestamp": "2025-12-14T22:38:41.039046+00:00", "meta": {"OBJECT_NAME": "FENGYUN 1C DEB", "OBJECT_ID": "1999-025BKV", "EPOCH": "2025-12-13T19:28:50.397888", "MEAN_MOTION": 14.33795685, "ECCENTRICITY": 0.00699696, "INCLINATION": 99.0728, "RA_OF_ASC_NODE": 191.9234, "ARG_OF_PERICENTER": 321.2042, "MEAN_ANOMALY": 38.4128, "EPHEMERIS_TYPE": 0, "CLASSIFICATION_TYPE": "U", "NORAD_CAT_ID": 31215, "ELEMENT_SET_NO": 999, "REV_AT_EPOCH": 96541, "BSTAR": 0.0012136919, "MEAN_MOTION_DOT": 3.421e-05, "MEAN_MOTION_DDOT": 0}, "tle": {"line1": "1 31215U 99025BKV 25347.81169442  .00003421  00000+0  12137-2 0  9998", "line2": "2 31215  99.0728 191.9234 0069969 321.2042  38.4128 14.33795685965413"}}, "geometry": {"type": "Point", "coordinates": [153.62071390388542, 75.89530567548682]}}, {"type": "Feature", "properties": {"norad_id": 31217, "name": "FENGYUN 1C DEB", "group": "fengyun-1c-debris", "lat": 74.5458994971598, "lon": -149.85986838125638, "alt_km": 780.7214109870192, "timestamp": "2025-12-14T22:38:41.039056+00:00", "meta": {"OBJECT_NAME": "FENGYUN 1C DEB", "OBJECT_ID": "1999-025BKX", "EPOCH": "2025-12-14T06:54:47.729088", "MEAN_MOTION": 14.17542063, "ECCENTRICITY": 0.00997152, "INCLINATION": 98.6411, "RA_OF_ASC_NODE": 356.1326, "ARG_OF_PERICENTER": 155.5882, "MEAN_ANOMALY": 205.0064, "EPHEMERIS_TYPE": 0, "CLASSIFICATION_TYPE": "U", "NORAD_CAT_ID": 31217, "ELEMENT_SET_NO": 999, "REV_AT_EPOCH": 96370, "BSTAR": 0.00070879587, "MEAN_MOTION_DOT": 1.469e-05, "MEAN_MOTION_DDOT": 0}, "tle": {"line1": "1 31217U 99025BKX 25348.28805242  .00001469  00000+0  70880-3 0  9997", "line2": "2 31217  98.6411 356.1326 0099715 155.5882 205.0064 14.17542063963701"}}, "geometry": {"type": "Point", "coordinates": [-149.85986838125638, 74.5458994971598]}}, {"type": "Feature", "properties": {"norad_id": 31218, "name": "FENGYUN 1C DEB", "group": "fengyun-1c-debris", "lat": 73.97667029643476, "lon": 66.49898401156909, "alt_km": 640.3339376609847, "timestamp": "2025-12-14T22:38:41.039065+00:00", "meta": {"OBJECT_NAME": "FENGYUN 1C DEB", "OBJECT_ID": "1999-025BKY", "EPOCH": "2025-12-14T01:05:57.976224", "MEAN_MOTION": 14.72571567, "ECCENTRICITY": 0.00116996, "INCLINATION": 98.8403, "RA_OF_ASC_NODE": 98.3377, "ARG_OF_PERICENTER": 29.3708, "MEAN_ANOMALY": 330.8152, "EPHEMERIS_TYPE": 0, "CLASSIFICATION_TYPE": "U", "NORAD_CAT_ID": 31218, "ELEMENT_SET_NO": 999, "REV_AT_EPOCH": 97102, "BSTAR": 0.0042281283, "MEAN_MOTION_DOT": 0.00026963, "MEAN_MOTION_DDOT": 0}, "tle": {"line1": "1 31218U 99025BKY 25348.04580991  .00026963  00000+0  42281-2 0  9992", "line2": "2 31218  98.8403  98.3377 0011699  29.3708 330.8152 14.72571567971027"}}, "geometry": {"type": "Point", "coordinates": [66.49898401156909, 73.97667029643476]}}, {"type": "Feature", "properties": {"norad_id": 31219, "name": "FENGYUN 1C DEB", "group": "fengyun-1c-debris", "lat": -12.075477585741908, "lon": 176.88226288865954, "alt_km": 797.4690697896331, "timestamp": "2025-12-14T22:38:41.039075+00:00", "meta": {"OBJECT_NAME": "FENGYUN 1C DEB", "OBJECT_ID": "1999-025BKZ", "EPOCH": "2025-12-12T11:59:30.173856", "MEAN_MOTION": 14.13784751, "ECCENTRICITY": 0.00788542, "INCLINATION": 99.2853, "RA_OF_ASC_NODE": 356.3512, "ARG_OF_PERICENTER": 177.9372, "MEAN_ANOMALY": 182.2139, "EPHEMERIS_TYPE": 0, "CLASSIFICATION_TYPE": "U", "NORAD_CAT_ID": 31219, "ELEMENT_SET_NO": 999, "REV_AT_EPOCH": 95566, "BSTAR": 0.0019825949, "MEAN_MOTION_DOT": 3.819e-05, "MEAN_MOTION_DDOT": 0}, "tle": {"line1": "1 31219U 99025BKZ 25346.49965479  .00003819  00000+0  19826-2 0  9992", "line2": "2 31219  99.2853 356.3512 0078854 177.9372 182.2139 14.13784751955665"}}, "geometry": {"type": "Point", "coordinates": [176.88226288865954, -12.075477585741908]}}, {"type": "Feature", "properties": {"norad_id": 31222, "name": "FENGYUN 1C DEB", "group": "fengyun-1c-debris", "lat": -36.998229631271336, "lon": 65.70088278429137, "alt_km": 598.0346027886862, "timestamp": "2025-12-14T22:38:41.039085+00:00", "meta": {"OBJECT_NAME": "FENGYUN 1C DEB", "OBJECT_ID": "1999-025BLC", "EPOCH": "2025-12-14T03:34:18.806592", "MEAN_MOTION": 14.9784828, "ECCENTRICITY": 0.01704899, "INCLINATION": 98.6119, "RA_OF_ASC_NODE": 58.2674, "ARG_OF_PERICENTER": 64.9885, "MEAN_ANOMALY": 296.8931, "EPHEMERIS_TYPE": 0, "CLASSIFICATION_TYPE": "U", "NORAD_CAT_ID": 31222, "ELEMENT_SET_NO": 999, "REV_AT_EPOCH": 4, "BSTAR": 0.0007055296, "MEAN_MOTION_DOT": 0.00011142, "MEAN_MOTION_DDOT": 0}, "tle": {"line1": "1 31222U 99025BLC 25348.14882878  .00011142  00000+0  70553-3 0  9994", "line2": "2 31222  98.6119  58.2674 0170489  64.9885 296.8931 14.97848280    40"}}, "geometry": {"type": "Point", "coordinates": [65.70088278429137, -36.998229631271336]}}, {"type": "Feature", "properties": {"norad_id": 31223, "name": "FENGYUN 1C DEB", "group": "fengyun-1c-debris", "lat": -18.79162471154694, "lon": 52.05086947728048, "alt_km": 1149.6416647680308, "timestamp": "2025-12-14T22:38:41.039096+00:00", "meta": {"OBJECT_NAME": "FENGYUN 1C DEB", "OBJECT_ID": "1999-025BLD", "EPOCH": "2025-12-12T15:38:41.211168", "MEAN_MOTION": 13.77243992, "ECCENTRICITY": 0.02425608, "INCLINATION": 99.0053, "RA_OF_ASC_NODE": 232.9707, "ARG_OF_PERICENTER": 41.0282, "MEAN_ANOMALY": 320.8838, "EPHEMERIS_TYPE": 0, "CLASSIFICATION_TYPE": "U", "NORAD_CAT_ID": 31223, "ELEMENT_SET_NO": 999, "REV_AT_EPOCH": 92727, "BSTAR": 0.0033832955, "MEAN_MOTION_DOT": 4.128e-05, "MEAN_MOTION_DDOT": 0}, "tle": {"line1": "1 31223U 99025BLD 25346.65186587  .00004128  00000+0  33833-2 0  9998", "line2": "2 31223  99.0053 232.9707 0242560  41.0282 320.8838 13.77243992927271"}}, "geometry": {"type": "Point", "coordinates": [52.05086947728048, -18.79162471154694]}}, {"type": "Feature", "properties": {"norad_id": 31224, "name": "FENGYUN 1C DEB", "group": "fengyun-1c-debris", "lat": 79.7761756666997, "lon": -144.53321746755313, "alt_km": 730.8149214895866, "timestamp": "2025-12-14T22:38:41.039106+00:00", "meta": {"OBJECT_NAME": "FENGYUN 1C DEB", "OBJECT_ID": "1999-025BLE", "EPOCH": "2025-12-14T05:28:06.339360", "MEAN_MOTION": 14.2889839, "ECCENTRICITY": 0.0157983, "INCLINATION": 98.3699, "RA_OF_ASC_NODE": 340.064, "ARG_OF_PERICENTER": 158.463, "MEAN_ANOMALY": 219.6087, "EPHEMERIS_TYPE": 0, "CLASSIFICATION_TYPE": "U", "NORAD_CAT_ID": 31224, "ELEMENT_SET_NO": 999, "REV_AT_EPOCH": 69272, "BSTAR": 0.00037961414, "MEAN_MOTION_DOT": 1.053e-05, "MEAN_MOTION_DDOT": 0}, "tle": {"line1": "1 31224U 99025BLE 25348.22785115  .00001053  00000+0  37961-3 0  9997", "line2": "2 31224  98.3699 340.0640 0157983 158.4630 219.6087 14.28898390692726"}}, "geometry": {"type": "Point", "coordinates": [-144.53321746755313, 79.7761756666997]}}, {"type": "Feature", "properties": {"norad_id": 31225, "name": "FENGYUN 1C DEB", "group": "fengyun-1c-debris", "lat": 73.48146872737604, "lon": 29.934574973541817, "alt_km": 826.0689803346795, "timestamp": "2025-12-14T22:38:41.039116+00:00", "meta": {"OBJECT_NAME": "FENGYUN 1C DEB", "OBJECT_ID": "1999-025BLF", "EPOCH": "2025-12-13T16:31:44.944896", "MEAN_MOTION": 14.17865231, "ECCENTRICITY": 0.00880507, "INCLINATION": 98.9898, "RA_OF_ASC_NODE": 60.9263, "ARG_OF_PERICENTER": 348.6479, "MEAN_ANOMALY": 165.0343, "EPHEMERIS_TYPE": 0, "CLASSIFICATION_TYPE": "U", "NORAD_CAT_ID": 31225, "ELEMENT_SET_NO": 999, "REV_AT_EPOCH": 95835, "BSTAR": 0.0016013997, "MEAN_MOTION_DOT": 3.354e-05, "MEAN_MOTION_DDOT": 0}, "tle": {"line1": "1 31225U 99025BLF 25347.68871464  .00003354  00000+0  16014-2 0  9991", "line2": "2 31225  98.9898  60.9263 0088050 348.6479 165.0343 14.17865231958354"}}, "geometry": {"type": "Point", "coordinates": [29.934574973541817, 73.48146872737604]}}, {"type": "Feature", "properties": {"norad_id": 31226, "name": "FENGYUN 1C DEB", "group": "fengyun-1c-debris", "lat": -50.467788711228515, "lon": -1.0890703011485265, "alt_km": 853.1758096538397, "timestamp": "2025-12-14T22:38:41.039126+00:00", "meta": {"OBJECT_NAME": "FENGYUN 1C DEB", "OBJECT_ID": "1999-025BLG", "EPOCH": "2025-12-06T17:57:16.149312", "MEAN_MOTION": 14.2667576, "ECCENTRICITY": 0.01264653, "INCLINATION": 98.3501, "RA_OF_ASC_NODE": 340.838, "ARG_OF_PERICENTER": 213.6965, "MEAN_ANOMALY": 145.613, "EPHEMERIS_TYPE": 0, "CLASSIFICATION_TYPE": "U", "NORAD_CAT_ID": 31226, "ELEMENT_SET_NO": 999, "REV_AT_EPOCH": 61968, "BSTAR": 0.00066349543, "MEAN_MOTION_DOT": 1.704e-05, "MEAN_MOTION_DDOT": 0}, "tle": {"line1": "1 31226U 99025BLG 25340.74810358  .00001704  00000+0  66350-3 0  9993", "line2": "2 31226  98.3501 340.8380 0126465 213.6965 145.6130 14.26675760619688"}}, "geometry": {"type": "Point", "coordinates": [-1.0890703011485265, -50.467788711228515]}}]}